Location Name,Status,Store Type,Store Email,Store Address,City,Province/State,Postal/Zip Code,Country,Store Tel,Store Hours,Region,Instagram Page,Facebook page
Retail Stores,,,,,,,,,,,,,
CANADA,,,,,,,,,,,,,
CAN WEST,,,,,,,,,,,,,
Arc'teryx Burrard,Open,Brand Store,shop.burrard@arcteryx.com,813 Burrard St.,Vancouver,BC,V6Z 1X8,Canada,(604) 416-1588,Mon-Sat: 10-7pm Sun: 11-7,Canada West,@arcteryxbc,https://www.facebook.com/arcteryx.vancouver/
Arc'teryx Kitsilano,Open,Pinnacle,shop.kitsilano@arcteryx.com,2201 W 4th Ave.,Vancouver,BC,V6K 1N7,Canada,(604) 737-1104,Mon-Sat: 10-7pm Sun: 11-6,Canada West,@arcteryxbc,https://www.facebook.com/arcteryx.vancouver/
Arc'teryx Metrotown,Open,Brand Store,shop.metrotown@arcteryx.com,1203-4700 Kingsway,Burnaby,BC,V5H 4M1,Canada,(236) 521 6076,"Mon-Sat: 10-9pm, Sun: 11-7",Canada West,@arcteryxbc,
Arc'teryx Park Royal,Open,,shop.parkroyal@arcteryx.com,"Unit G2, 825 Main St",West Vancouver,BC,V7T2Z3,Canada,(236) 706-0244,"Sun-Wed: 10AM - 7PM, Thur-Fri: 10AM - 9PM, Sat: 10AM - 8PM",Canada West,@arcteryxbc,
Arc'teryx Richmond Centre,Open,Brand Store,shop.richmond@arcteryx.com,"Richmond Centre, Unit 1566-6551 No. 3 Rd",Richmond,BC,V6Y 2B6,Canada,(778) 200-5959,"Mon-Sat: 10-9, Sun: 11-7",Canada West,@arcteryxbc,https://www.facebook.com/arcteryx.vancouver/
Arc'teryx Victoria,Open,Brand Store,shop.victoria@arcteryx.com,1305 Government Street,Victoria,BC,V8W 1Y9,Canada,(250) 940-3136,"Mon-Sat: 10-6, Sun: 10-5",Canada West,@arcteryxbc,https://www.facebook.com/arcteryxvictoria/
Arc'teryx Whistler,Open,Brand Store,shop.whistler@arcteryx.com,104-4338 Main Street,Whistler,BC,V8E 1B4,Canada,(604) 962-9272,Mon-Sun: 10-6,Canada West,@arcteryxbc,https://www.facebook.com/arcteryx.vancouver/
Arc'teryx North Vancouver FO,Open,Factory Outlet,vancouver.factoryoutletstore@arcteryx.com,2155 Dollarton Hwy #100,North Vancouver,BC,V7H 3B2,Canada,(604) 960-3119,Mon-Sun: 10-6,Canada West,@arcteryxbc,
CAN CENTRAL,,,,,,,,,,,,,
Arc'teryx Calgary,Open,Brand Store,shop.calgary@arcteryx.com,150-815 17th Ave SW,Calgary,AB,T2T 0A1,Canada,(587) 392-3135,Mon-Fri: 10-7 Sat-Sun: 10-6,Canada Central,@arcteryxalberta,https://www.facebook.com/arcteryxalberta/
Arc'teryx Chinook,Open,Brand Store,shop.chinook@arcteryx.com,1183-6455 Macleod Trail SW,Calgary,AB,T2H 0K8,Canada,(587) 391-4818,Mon-Sat: 10-9 Sun: 10-6,Canada Central,@arcteryxalberta,https://www.facebook.com/arcteryxalberta/
Arc'teryx Crossiron Mills,Open,Hybrid,shop.crossironmills@arcteryx.com,"Unit 456, 261055 Crossiron Blvd",Calgary,AB,T4A 0G3,Canada,(825) 425-0645,"Mon - Wed: 10AM -8PM
Thur- Sat: 10AM - 9PM
Sun 11AM - 6PM",Canada Central,,
Arc'teryx Market Mall,Open,Temp Brand Store,shop.marketmall@arcteryx.com,Unit R026 - 3625 Shaganappi Trail NW,Calgary,AB,T3A 0E2,Canada,(403) 288-4243,Mon-Fri: 10-9 Sat: 10-8 Sun: 10-6,Canada Central,@arcteryxalberta,https://www.facebook.com/arcteryxalberta/
Arc'teryx Southgate,Open,Brand Store,shop.southgate@arcteryx.com,"Unit 701 Southgate Centre, 5015-111 St. NW",Edmonton,AB,T6H 4M6,Canada,(587) 400-8558,Mon-Fri: 10 AM–9 PM Saturday: 10 AM–7 PM Sunday: 11 AM–6 PM,Canada Central,,
Arc'teryx West Edmonton,Open,Brand Store,shop.westedmonton@arcteryx.com,#2299-8882 170th St NW,Edmonton,AB,T5T 4M2,Canada,(587) 401-7115,Mon-Sat: 10-9 Sun: 11-6,Canada Central,@arcteryxalberta,https://www.facebook.com/arcteryxalberta/
CAN EAST,,,,,,,,,,,,,
Arc'teryx Dix30 (Brossard),Open,Brand Store,shop.quartierdix30@arcteryx.com,155 Promenade des Lanternes #20,Brossard,Qc,J4Y 0L3,Canada,(438) 793-6290,Mon-Fri: 10-6 Sat: 9-5 Sun: 10-5,Canada East,@arcteryxmontreal,https://www.facebook.com/arcteryxmontreal/
Arc'teryx Laval,Open,Brand Store,shop.laval@arcteryx.com,C004-3035 Boulevard le Carrefour,Laval,Qc,H7T 1C8,Canada,(450) 682-8087,Mon-Fri: 10-9 Sat: 9-5 Sun: 10-5,Canada East,@arcteryxmontreal,https://www.facebook.com/arcteryxmontreal/
Arc'teryx Montreal,Open,Brand Store,shop.montreal@arcteryx.com,"1515 Ste Catherine Ouest, Suite 1-745",Montreal,Qc,H3G 2W1,Canada,(514) 315-2052,Mon-Fri: 10-8 Sat-Sun: 10-6,Canada East,@arcteryxmontreal,https://www.facebook.com/arcteryxmontreal/
Arc'teryx Rideau,Open,Brand Store,shop.rideau@arcteryx.com,CF Rideau Centre #215A-50 Rideau St,Ottawa,ON,K1N 9J7,Canada,(613) 912-1155,"Monday - Saturday: 10AM - 9PM
Sunday - 11AM - 6PM",Canada East,@arcteryxmontreal,
Arc'teryx Westmount,Open,Arc'type Store,shop.westmount@arcteryx.com,4868 Sherbrooke St. West,Westmount,Qc,H3Z 1H1,Canada,(514) 369-2698,Mon-Fri: 10-6 Sat-Sun: 10-5,Canada East,@arcteryxmontreal,https://www.facebook.com/arcteryxmontreal/
CAN GTA,,,,,,,,,,,,,
Arc'teryx Square One,Open,Brand Store,shop.squareone@arcteryx.com,"Square One Shopping Centre, Unit #2-147, 100 City Centre Dr.",Mississauga,ON,L5B 2C9,Canada,(647) 932-6490,Mon-Fri: 10-9 Sat: 9:30-9 Sun: 11-7,Canada GTA,@arcteryxtoronto,https://www.facebook.com/arcteryxtoronto/
Arc'teryx Toronto Eaton Centre (TEC),Open,Brand Store,shop.tec@arcteryx.com,Unit 3108-218 Yonge St,Toronto,ON,M5B 2H6,Canada,(647) 932-6520,Mon-Sat: 10-9 Sun: 11-7,Canada GTA,@arcteryxtoronto,https://www.facebook.com/arcteryxtoronto/
Arc'teryx Toronto (Queen Street),Open,Brand Store,shop.toronto@arcteryx.com,339 Queen Street West,Toronto,ON,M5V 2A4,Canada,(416) 204-1118,Mon-Sat: 11-8 Sun: 11-6,Canada GTA,@arcteryxtoronto,https://www.facebook.com/arcteryxtoronto/
Arc'teryx Vaughan Mills,Open,Hybrid Store,shop.vaughanmills@arcteryx.com,#600-1 Bass Pro Mills Drive,Concord,ON,L4K 5W4,Canada,(289) 275-9975,Mon-Sat: 10-9  Sun:11-7,Canada GTA,@arcteryxtoronto,https://www.facebook.com/arcteryxtoronto/
Arc'teryx Yorkdale,Open,Brand Store,shop.yorkdale@arcteryx.com,Unit 505-3401 Dufferin St.,Toronto,ON,M6A 2T9,Canada,(416) 787-6978,Mon-Sat: 10-9 Sun:10-7,Canada GTA,@arcteryxtoronto,https://www.facebook.com/arcteryxtoronto/
Arc'teryx TPO (Halton Hills) FO,Open,Factory Outlet,outlet.toronto@arcteryx.com,#1207-13850 Steeles Avenue W,Halton Hills,ON,L7G 0J1,Canada,(905) 864-7218,Mon-Fri: 10-9 Sat: 9:30-9 Sun: 11-7,Canada GTA,@arcteryxtoronto,https://www.facebook.com/arcteryxtoronto/
US,,,,,,,,,,,,,
US WEST,,,,,,,,,,,,,
Arc'teryx Portland,Open,Brand Store,shop.portland@arcteryx.com,605 NW 23rd Ave,Portland,OR,97210,USA,(503) 808-1859,Mon-Sun: 11-6,US West,www.instagram.com/arcteryxportland/,https://www.facebook.com/arcteryxportland/
Arc'teryx Seattle RELO,Open,,,401 Pike Street,Seattle,WA,98101,USA,(206) 462-6058,,,,
Arc'teryx Tulalip FO,Open,Factory Outlet,shop.tulalip@arcteryx.com,10600 Quil Ceda Blvd #1000,Tulalip,WA,98271,USA,(360) 716-3991,Mon-Thur/Sun: 10-7 Fri-Sat: 10-8,US West,www.instagram.com/arcteryxseattle/,https://www.facebook.com/arcteryxseattle/
US NORCAL/SOCAL,,,,,,,,,,,,,
Arc'teryx Pasadena,Open,,shop.pasadena@arcteryx.com,107 West Colorado Blvd,Pasadena,CA,91105,USA,(626) 689-4388,"Mon-Sat: 10AM - 8PM, Sun: 11AM-6PM",US NORCAL,,
Arc'teryx La Brea,Open,Brand Store,shop.labrea@arcteryx.com,159 S. La Brea Ave,Los Angeles,CA,90036,USA,(323) 933-3270,Mon-Sat: 11-6:30 Sun: 12-6,US NORCAL,www.instagram.com/arcteryx.losangeles,https://www.facebook.com/arcteryxLaBrea/
Arc'teryx Palo Alto,Open,Brand Store,shop.paloalto@arcteryx.com,"660 Stanford Shopping Center, Suite #1030",Palo Alto,CA,94304,USA,(650) 847-4026,Mon-Sat: 10-7 Sun: 11-6,US NORCAL,https://www.instagram.com/arcteryxnorcal,https://www.facebook.com/arcteryxnorcal
Arc'teryx Santana Row,Open,Brand Store,shop.santanarow@arcteryx.com,"356 Santana Row, Suite 1001",San Jose,CA,95128,USA,(408) 642-1611,Mon-Sat 10-7 Sun 11-6,US NORCAL,https://www.instagram.com/arcteryxnorcal,https://www.facebook.com/arcteryxnorcal
Arc'teryx Corte Madera,Open,Arc'type Store,shop.cortemadera@arcteryx.com,"1708 Redwood Hwy, Suite #A035",Corte Madera,CA,94925,USA,(415) 891-6324,Mon-Fri: 10-8 Sat 10-7 Sun: 11-6,US NORCAL,https://www.instagram.com/arcteryxnorcal,https://www.facebook.com/arcteryxnorcal
Arc'teryx Livermore FO,Open,Factory Outlet,shop.livermore@arcteryx.com,"2750 Livermore Outlets Drive, Livermore",Livermore,CA,94551,USA,(925) 667-4187,Mon-Thur/Sun: 10-7 Fri-Sat: 10-8,US NORCAL,,
US ROCKIES,,,,,,,,,,,,,
Arc'teryx Boulder,Open,Brand Store,Shop.Boulder@arcteryx.com,Suite 100-1600 Pearl St,Boulder,CO,80302,USA,(303) 285-6285,Mon-Sat: 10-8 Sun: 11-6,US Central,@arcteryxcolorado,
Arc'teryx Cherry Creek,Open,Temp Brand Store,shop.cherrycreek@arcteryx.com,3000 E 1st Ave Unit #221,Denver,CO,80206,USA,(303) 835-0085,Mon-Sun: 10-7,US Central,@arcteryxcolorado,
Arc'teryx RiNo,Open,Brand Store,shop.rino@arcteryx.com,#240-2601 Walnut Street,Denver,CO,80205,USA,(303) 226-8888,7,US Central,@arcteryxcolorado,
Arc'teryx Castle Rock FO,Open,Factory Outlet,shop.castlerock@arcteryx.com,5050 Factory Shops Blvd #670,Castle Rock,CO,80108,USA,(303) 586-5567,Mon-Fri: 10-8 Sat: 9-9 Sun: 10-7,US Central,@arcteryxcolorado,
Ogden Multi Outlet Store,Open,Factory Outlet,Ogden.factoryoutletstore@amersports.com,2030 Lincoln Ave.,Ogden,UT,84401,USA,(801) 624-7670,Mon-Sat: 10-6 Closed Sunday,US Central,,
US EAST,,,,,,,,,,,,,
Arc'teryx Market Street,Open,Brand Store,shop.marketstreet@arcteryx.com,110 Market St.,Lynnfield,MA,01940,USA,(617) 229-7555,,US East,,
Arc'teryx Newbury Street,Open,Brand Store,shop.newbury@arcteryx.com,352 Newbury Street,Boston,MA,02115,USA,(617) 421-8601,Mon-Sat: 11-7 Sun: 12-6,US East,www.instagram.com/arcteryxboston/,https://www.facebook.com/arcteryxboston/
Arc'teryx Tysons Corner,Open,Brand Store,shop.tysonscorner@arcteryx.com,Space #K4AU 1961 Chain Bridge Road,Tysons,VA,22102,USA,(703) 991-5755,"Mon-Sat 10AM - 9PM
Sunday 11 AM - 7 PM",US East,@arcteryxwashingtondc,
Arc'teryx Washington DC,Open,Brand Store,shop.washington@arcteryx.com,1099 H St NW,Washington,DC,20001,USA,(202) 589-0462,Mon-Sat: 10-8 Sun: 11-6,US East,www.instagram.com/arcteryxwashingtondc/,https://www.facebook.com/arcteryxwashingtondc/
NY & NJ METRO,,,,,,,,,,,,,
Arc'teryx Brookfield Place,Open,Brand Store,shop.brookfieldplace@arcteryx.com,Unit 115 250 Vesey St.,New York,NY,10281,USA,(646) 588-0226,"Mon-Sat: 10AM - 8PM, Sun: 11AM-6PM",NY & NJ METRO,,
Arc'teryx Flatiron,Open,Brand Store,shop.flatiron@arcteryx.com,149 5th Ave.,New York,NY,10010,USA,(646) 861-3507,Mon-Sat: 11-7 Sun:12-6,NY & NJ METRO,www.instagram.com/arcteryxnewyork,https://www.facebook.com/arcteryxnewyork
Arc'teryx SoHo,Open,Brand Store,shop.soho@arcteryx.com,169 Spring Street,New York,NY,10012,USA,(646) 398-8435,Mon-Fri: 11-7 Sun: 12-6,NY & NJ METRO,www.instagram.com/arcteryxnewyork,https://www.facebook.com/arcteryxnewyork
Arc'teryx Upper West Side,Open,Arc'type Store,shop.upperwestside@arcteryx.com,158 Columbus Ave,New York,NY,10023,USA,(917) 261-5284,Mon-Sat: 11-7 Sun: 11-6,NY & NJ METRO,www.instagram.com/arcteryxnewyork,https://www.facebook.com/arcteryxnewyork
US TRI-STATE,,,,,,,,,,,,,
Arc'teryx Garden State Plaza,Open,Brand Store,shop.gardenstate@arcteryx.com,Space D1B-1 Garden State Plaza,Paramus,NJ,07652,USA,(201) 580-2611,"Mon - Thurs: 10AM - 9PM, Fri-Sat: 10AM - 9:30PM, Sun: Closed",NY & NJ METRO,,
Arc'teryx Manhasset,Open,Brand Store,shop.manhasset@arcteryx.com,Unit B-1A 1950 Northern Blvd.,Manhasset,NY,11030,USA,(516) 344-6300,"Mon-Sat: 10AM - 7PM, Sun: 11AM - 6PM",NY & NJ METRO,,
Arc'teryx Woodbury FO,Open,Factory Outlet,shop.woodbury@arcteryx.com,625 Race Track Lane,Central Valley,NY,10917,USA,(845) 827-1813,Mon-Thur: 11-7 Fri-Sun: 10-8,NY & NJ METRO,,
US CHICAGO,,,,,,,,,,,,,
Arc'teryx Chicago Rush Street,Open,Brand Store,shop.rush@arcteryx.com,1007 N. Rush St.,Chicago,IL,60611,USA,(312) 374-1147,Mon-Sat: 10-7 Sun: 11-6,US Chicago,,
Arc'teryx MOA,Open,Brand Store,shop.moa@arcteryx.com,145 West Market,Bloomington,MN,55425,USA,(612) 465-0007,Mon-Sun: 10-9,US Chicago,https://www.instagram.com/arcteryxmsp/,https://www.facebook.com/arcteryxmsp
Arc'teryx Oakbrook Center,Open,Brand Store,shop.oakbrook@arcteryx.com,Unit 2228 -100 Oakbrook Center,Oak Brook,IL,60524,USA,(630) 785-2388,"Mon-Thurs 10am-8pm, Fri-Sat 10-9pm, Sun 11-6pm",US Chicago,,
Arc'teryx Chicago Bucktown FO,Open,Factory Outlet,shop.chicago@arcteryx.com,1630 N Damen Ave,Chicago,IL,60647,USA,(773) 697-7381,Mon-Sat: 11-7 Sun: 11-5,US Chicago,www.instagram.com/arcteryxchicago/,https://www.facebook.com/arcteryxchicago/
EMEA,,,,,,,,,,,,,
EMEA NORTH,,,,,,,,,,,,,
Arc'teryx Battersea,Open,Brand Store,shop.battersea@arcteryx.com,"Unit UG-012A, Upper Ground Floor Level, Phase 2 Battersea Power Station",Battersea,,SW11 8AL,England,(+44) 20 4539 9226,"Mon - Sat: 10AM-9PM
Sun: 12PM-6PM",EMEA,https://www.instagram.com/arcteryxuk/,
Arc'teryx Covent Garden RELO,Open,,,41-42 King Street,London,,WC2E 8JS,England,(+44) 20 7240 3672,Mon - Sat: 10AM - 7PM Sun: 12pm - 6PM,EMEA,,
Arc'teryx Piccadilly,Open,Brand Store,shop.piccadilly@arcteryx.com,"212 Piccadilly, London",London,,W1J 9HL,England,(+44) 20 7287 7429,Mon-Sat: 10-7 Sun: 11:30-5:30,EMEA,https://www.instagram.com/arcteryxuk/,
Arc'teryx Oslo,Open,Brand Store,shop.oslo@arcteryx.com,Nedre Slottsgate 25,Oslo,,0157,Norway,004721934544,Mon-Fri: 10-6 Sat: 10-5 Sun: Closed,EMEA,https://www.instagram.com/arcteryxnorge/,
EMEA CENTRAL,,,,,,,,,,,,,
Arc'teryx Landquart FO,Open,Factory Outlet,shop.landquart@arcteryx.com,"Tardisstrasse 59, 7205 Landquart, Switzerland",Landquart,,7302,Switzerland,(+41) 81 322 10 96,Mon-Sun: 10-7,EMEA,,
Arc'teryx Parndorf FO,Open,Factory Outlet,shop.parndorf@arcteryx.com,"Designer-Outlet-Straße 1, 7111",Parndorf,,,Austria,(+43) 21662 07880,Mon-Wed: 9-8 Thur-Fri: 9-9 Sat: 9-6 Sun: Closed,EMEA,,
EMEA PARIS,,,,,,,,,,,,,
Arc'teryx La Samaritaine,Open,,Store.lasamaritaine@arcteryx.com,9 Rue De La Monnaie,Paris,,75001,France,,,,,
EMEA Dual Outlet Stores,,,,,,,,,,,,,
Roermond,Open,Dual Outlet Store,shop.roermond@amersports.com,Stadsweide 410,Roermond,,6041TD,Netherlands,,,,,
Mendrisio,Open,Dual Outlet Store,shop.mendrisio@amersports.com,,,,,,,,,,
Arc'teryx Garching,Open,Dual Outlet Store,shop.garching@amersports.com,Parking 15,Garching,GE,85748,Germany,(+49) 89 8980 1308,,,,
Ingolstadt,Open,Dual Outlet Store,shop.ingolstadt@salomon.com,Otto-Hahn-Straße 1,Ingolstadt,Bavaria,85055,Germany,,,,,
OCEANIA,,,,,,,,,,,,,
Australia,,,,,,,,,,,,,
Arc'teryx Bondi Junction,Open,,,"Westfield, Level 5, Shop 5003/5004 500 Oxford St",Bondi Junction,NSW,2022,Australia,+61 455 552 522,,,,
Arc'teryx Chadstone,Open,,,"Shop B-306, 341 Dandenong Rd Chadstone",Chadstone,Victoria,3148,Australia,(+61) 03 9563 3451,,,,
Arc'teryx  Melbourne,Open,Brand Store,csr.au@amersports.com,"LG02, Emporium, 287 Lonsdale Street",Melbourne,Victoria,3000,Austrailia,(+61) 03 9639 1450,,,,